{"type": "FeatureCollection", "features": [ {"type": "Feature", "properties": {"norad_id": 38552, "name": "METEOSAT-10 (MSG-3)", "group": "weather", "lat": 4.269228492252913, "lon": 153.19550954742576, "alt_km": 35793.03368925239, "timestamp": "2025-12-25T03:55:55.948633+00:00", "meta": {"OBJECT_NAME": "METEOSAT-10 (MSG-3)", "OBJECT_ID": "2012-035B", "EPOCH": "2025-12-23T23:24:15.412032", "MEAN_MOTION": 1.00266372, "ECCENTRICITY": 0.0001439, "INCLINATION": 4.2534, "RA_OF_ASC_NODE": 61.6917, "ARG_OF_PERICENTER": 267.4688, "MEAN_ANOMALY": 114.9679, "EPHEMERIS_TYPE": 0, "CLASSIFICATION_TYPE": "U", "NORAD_CAT_ID": 38552, "ELEMENT_SET_NO": 999, "REV_AT_EPOCH": 4910, "BSTAR": 0, "MEAN_MOTION_DOT": 1.4e-07, "MEAN_MOTION_DDOT": 0}, "tle": {"line1": "1 38552U 12035B   25357.97517838  .00000014  00000+0  00000+0 0  9997", "line2": "2 38552   4.2534  61.6917 0001439 267.4688 114.9679  1.00266372 49109"}}, "geometry": {"type": "Point", "coordinates": [153.19550954742576, 4.269228492252913]}}, {"type": "Feature", "properties": {"norad_id": 38771, "name": "METOP-B", "group": "weather", "lat": -80.8280595088263, "lon": 157.8410260925357, "alt_km": 829.9283241149533, "timestamp": "2025-12-25T03:55:55.948645+00:00", "meta": {"OBJECT_NAME": "METOP-B", "OBJECT_ID": "2012-049A", "EPOCH": "2025-12-24T18:13:58.115424", "MEAN_MOTION": 14.21412783, "ECCENTRICITY": 0.0003267, "INCLINATION": 98.6782, "RA_OF_ASC_NODE": 48.5138, "ARG_OF_PERICENTER": 119.009, "MEAN_ANOMALY": 241.1415, "EPHEMERIS_TYPE": 0, "CLASSIFICATION_TYPE": "U", "NORAD_CAT_ID": 38771, "ELEMENT_SET_NO": 999, "REV_AT_EPOCH": 68848, "BSTAR": 7.7091e-05, "MEAN_MOTION_DOT": 1.25e-06, "MEAN_MOTION_DDOT": 0}, "tle": {"line1": "1 38771U 12049A   25358.75970041  .00000125  00000+0  77091-4 0  9993", "line2": "2 38771  98.6782  48.5138 0003267 119.0090 241.1415 14.21412783688480"}}, "geometry": {"type": "Point", "coordinates": [157.8410260925357, -80.8280595088263]}}, {"type": "Feature", "properties": {"norad_id": 39216, "name": "INSAT-3D", "group": "weather", "lat": -0.4669143380292223, "lon": -77.5434453894856, "alt_km": 35779.44298613228, "timestamp": "2025-12-25T03:55:55.948658+00:00", "meta": {"OBJECT_NAME": "INSAT-3D", "OBJECT_ID": "2013-038B", "EPOCH": "2025-12-24T17:10:38.482752", "MEAN_MOTION": 1.00274542, "ECCENTRICITY": 0.0001893, "INCLINATION": 1.474, "RA_OF_ASC_NODE": 84.8623, "ARG_OF_PERICENTER": 155.9194, "MEAN_ANOMALY": 239.902, "EPHEMERIS_TYPE": 0, "CLASSIFICATION_TYPE": "U", "NORAD_CAT_ID": 39216, "ELEMENT_SET_NO": 999, "REV_AT_EPOCH": 4533, "BSTAR": 0, "MEAN_MOTION_DOT": -3.18e-06, "MEAN_MOTION_DDOT": 0}, "tle": {"line1": "1 39216U 13038B   25358.71572318 -.00000318  00000+0  00000+0 0  9994", "line2": "2 39216   1.4740  84.8623 0001893 155.9194 239.9020  1.00274542 45330"}}, "geometry": {"type": "Point", "coordinates": [-77.5434453894856, -0.4669143380292223]}}, {"type": "Feature", "properties": {"norad_id": 39260, "name": "FENGYUN 3C", "group": "weather", "lat": -76.01141615371975, "lon": 119.45951359040444, "alt_km": 848.8408825476399, "timestamp": "2025-12-25T03:55:55.948669+00:00", "meta": {"OBJECT_NAME": "FENGYUN 3C", "OBJECT_ID": "2013-052A", "EPOCH": "2025-12-24T21:37:32.415168", "MEAN_MOTION": 14.15699899, "ECCENTRICITY": 0.0014958, "INCLINATION": 98.4778, "RA_OF_ASC_NODE": 335.9874, "ARG_OF_PERICENTER": 160.9709, "MEAN_ANOMALY": 199.2027, "EPHEMERIS_TYPE": 0, "CLASSIFICATION_TYPE": "U", "NORAD_CAT_ID": 39260, "ELEMENT_SET_NO": 999, "REV_AT_EPOCH": 63390, "BSTAR": 8.2575e-05, "MEAN_MOTION_DOT": 1.21e-06, "MEAN_MOTION_DDOT": 0}, "tle": {"line1": "1 39260U 13052A   25358.90106962  .00000121  00000+0  82575-4 0  9991", "line2": "2 39260  98.4778 335.9874 0014958 160.9709 199.2027 14.15699899633905"}}, "geometry": {"type": "Point", "coordinates": [119.45951359040444, -76.01141615371975]}}, {"type": "Feature", "properties": {"norad_id": 40069, "name": "METEOR-M 2", "group": "weather", "lat": 45.133913490859555, "lon": 164.90493549031822, "alt_km": 813.4980471592125, "timestamp": "2025-12-25T03:55:55.948680+00:00", "meta": {"OBJECT_NAME": "METEOR-M 2", "OBJECT_ID": "2014-037A", "EPOCH": "2025-12-24T20:32:43.060416", "MEAN_MOTION": 14.21390892, "ECCENTRICITY": 0.0005641, "INCLINATION": 98.4917, "RA_OF_ASC_NODE": 335.9763, "ARG_OF_PERICENTER": 172.1198, "MEAN_ANOMALY": 188.007, "EPHEMERIS_TYPE": 0, "CLASSIFICATION_TYPE": "U", "NORAD_CAT_ID": 40069, "ELEMENT_SET_NO": 999, "REV_AT_EPOCH": 59455, "BSTAR": 9.8876e-05, "MEAN_MOTION_DOT": 1.74e-06, "MEAN_MOTION_DDOT": 0}, "tle": {"line1": "1 40069U 14037A   25358.85605394  .00000174  00000+0  98876-4 0  9990", "line2": "2 40069  98.4917 335.9763 0005641 172.1198 188.0070 14.21390892594551"}}, "geometry": {"type": "Point", "coordinates": [164.90493549031822, 45.133913490859555]}}, {"type": "Feature", "properties": {"norad_id": 40267, "name": "HIMAWARI-8", "group": "weather", "lat": 0.008647493097276597, "lon": -66.42925729161986, "alt_km": 35782.42164815468, "timestamp": "2025-12-25T03:55:55.948693+00:00", "meta": {"OBJECT_NAME": "HIMAWARI-8", "OBJECT_ID": "2014-060A", "EPOCH": "2025-12-24T18:08:34.454976", "MEAN_MOTION": 1.00271452, "ECCENTRICITY": 9.16e-05, "INCLINATION": 0.0435, "RA_OF_ASC_NODE": 201.9035, "ARG_OF_PERICENTER": 102.9917, "MEAN_ANOMALY": 201.4431, "EPHEMERIS_TYPE": 0, "CLASSIFICATION_TYPE": "U", "NORAD_CAT_ID": 40267, "ELEMENT_SET_NO": 999, "REV_AT_EPOCH": 4101, "BSTAR": 0, "MEAN_MOTION_DOT": -2.54e-06, "MEAN_MOTION_DDOT": 0}, "tle": {"line1": "1 40267U 14060A   25358.75595434 -.00000254  00000+0  00000+0 0  9995", "line2": "2 40267   0.0435 201.9035 0000916 102.9917 201.4431  1.00271452 41011"}}, "geometry": {"type": "Point", "coordinates": [-66.42925729161986, 0.008647493097276597]}}, {"type": "Feature", "properties": {"norad_id": 40367, "name": "FENGYUN 2G", "group": "weather", "lat": 0.23876743474762266, "lon": -107.84321025606286, "alt_km": 35775.493379837695, "timestamp": "2025-12-25T03:55:55.948705+00:00", "meta": {"OBJECT_NAME": "FENGYUN 2G", "OBJECT_ID": "2014-090A", "EPOCH": "2025-12-24T18:42:23.852736", "MEAN_MOTION": 1.00282174, "ECCENTRICITY": 0.0001828, "INCLINATION": 5.1959, "RA_OF_ASC_NODE": 74.9486, "ARG_OF_PERICENTER": 172.5748, "MEAN_ANOMALY": 225.8449, "EPHEMERIS_TYPE": 0, "CLASSIFICATION_TYPE": "U", "NORAD_CAT_ID": 40367, "ELEMENT_SET_NO": 999, "REV_AT_EPOCH": 4025, "BSTAR": 0, "MEAN_MOTION_DOT": -2.82e-06, "MEAN_MOTION_DDOT": 0}, "tle": {"line1": "1 40367U 14090A   25358.77944274 -.00000282  00000+0  00000+0 0  9992", "line2": "2 40367   5.1959  74.9486 0001828 172.5748 225.8449  1.00282174 40252"}}, "geometry": {"type": "Point", "coordinates": [-107.84321025606286, 0.23876743474762266]}}, {"type": "Feature", "properties": {"norad_id": 40732, "name": "METEOSAT-11 (MSG-4)", "group": "weather", "lat": 2.7794516958055477, "lon": 162.0845346066667, "alt_km": 35783.76476290102, "timestamp": "2025-12-25T03:55:55.948717+00:00", "meta": {"OBJECT_NAME": "METEOSAT-11 (MSG-4)", "OBJECT_ID": "2015-034A", "EPOCH": "2025-12-24T16:34:06.138048", "MEAN_MOTION": 1.00271233, "ECCENTRICITY": 7.24e-05, "INCLINATION": 2.7663, "RA_OF_ASC_NODE": 71.9688, "ARG_OF_PERICENTER": 136.9806, "MEAN_ANOMALY": 142.2216, "EPHEMERIS_TYPE": 0, "CLASSIFICATION_TYPE": "U", "NORAD_CAT_ID": 40732, "ELEMENT_SET_NO": 999, "REV_AT_EPOCH": 546, "BSTAR": 0, "MEAN_MOTION_DOT": 8.1e-07, "MEAN_MOTION_DDOT": 0}, "tle": {"line1": "1 40732U 15034A   25358.69034882  .00000081  00000+0  00000+0 0  9999", "line2": "2 40732   2.7663  71.9688 0000724 136.9806 142.2216  1.00271233  5469"}}, "geometry": {"type": "Point", "coordinates": [162.0845346066667, 2.7794516958055477]}}, {"type": "Feature", "properties": {"norad_id": 41105, "name": "ELEKTRO-L 2", "group": "weather", "lat": 5.718987834075668, "lon": 138.28738033920337, "alt_km": 35797.207293293875, "timestamp": "2025-12-25T03:55:55.948729+00:00", "meta": {"OBJECT_NAME": "ELEKTRO-L 2", "OBJECT_ID": "2015-074A", "EPOCH": "2025-12-23T23:20:08.306304", "MEAN_MOTION": 1.0027219, "ECCENTRICITY": 0.00035263, "INCLINATION": 6.2522, "RA_OF_ASC_NODE": 72.6944, "ARG_OF_PERICENTER": 208.9668, "MEAN_ANOMALY": 146.6578, "EPHEMERIS_TYPE": 0, "CLASSIFICATION_TYPE": "U", "NORAD_CAT_ID": 41105, "ELEMENT_SET_NO": 999, "REV_AT_EPOCH": 3674, "BSTAR": 0, "MEAN_MOTION_DOT": -9.8e-07, "MEAN_MOTION_DDOT": 0}, "tle": {"line1": "1 41105U 15074A   25357.97231836 -.00000098  00000+0  00000+0 0  9995", "line2": "2 41105   6.2522  72.6944 0003526 208.9668 146.6578  1.00272190 36746"}}, "geometry": {"type": "Point", "coordinates": [138.28738033920337, 5.718987834075668]}}, {"type": "Feature", "properties": {"norad_id": 41752, "name": "INSAT-3DR", "group": "weather", "lat": 0.06492210266437622, "lon": -133.22272712817553, "alt_km": 35743.55972447177, "timestamp": "2025-12-25T03:55:55.948742+00:00", "meta": {"OBJECT_NAME": "INSAT-3DR", "OBJECT_ID": "2016-054A", "EPOCH": "2025-12-24T15:09:51.705216", "MEAN_MOTION": 1.00271379, "ECCENTRICITY": 0.0014264, "INCLINATION": 0.1198, "RA_OF_ASC_NODE": 86.2568, "ARG_OF_PERICENTER": 185.6475, "MEAN_ANOMALY": 122.9543, "EPHEMERIS_TYPE": 0, "CLASSIFICATION_TYPE": "U", "NORAD_CAT_ID": 41752, "ELEMENT_SET_NO": 999, "REV_AT_EPOCH": 3406, "BSTAR": 0, "MEAN_MOTION_DOT": -5.6e-07, "MEAN_MOTION_DDOT": 0}, "tle": {"line1": "1 41752U 16054A   25358.63184844 -.00000056  00000+0  00000+0 0  9996", "line2": "2 41752   0.1198  86.2568 0014264 185.6475 122.9543  1.00271379 34067"}}, "geometry": {"type": "Point", "coordinates": [-133.22272712817553, 0.06492210266437622]}}]}